{"type":"FeatureCollection","features":[{"type":"Feature","geometry":{"coordinates":[112.7337931,-7.2553559],"type":"Point"},"properties":{"NAMA":"BG JUNCTION MALL","TIPE_1":"HIBURAN DAN KESENIAN","TIPE_2":"PUSAT PERBELANJAAN","TIPE_3":"-","TELEPON":"(031) 5472111","ALAMAT":"JL. BUBUTAN NO.1-7, BUBUTAN, KEC. BUBUTAN, SURABAYA, JAWA TIMUR 60174","ID_PROV":"35","PROVINSI":"JAWA TIMUR","ID_KABKOT":"35.78","KABKOT":"KOTA SURABAYA","ID_KEC":"35.78.13","KECAMATAN":"BUBUTAN","ID_DESA":"35.78.13.1002","DESA":"BUBUTAN","LONGITUDE":"112.7337931","LATITUDE":"-7.2553559","STATUS":"BUKA","TANGGAL PE":"Q2 2025","TANGGAL UP":"27/05/2025"}},{"type":"Feature","geometry":{"coordinates":[112.7274935,-7.3453319],"type":"Point"},"properties":{"NAMA":"CITY OF TOMORROW MALL","TIPE_1":"HIBURAN DAN KESENIAN","TIPE_2":"PUSAT PERBELANJAAN","TIPE_3":"-","TELEPON":"(031) 8275888","ALAMAT":"JL. AHMAD YANI NO.288, DUKUH MENANGGAL, KEC. GAYUNGAN, SURABAYA, JAWA TIMUR 60234","ID_PROV":"35","PROVINSI":"JAWA TIMUR","ID_KABKOT":"35.78","KABKOT":"KOTA SURABAYA","ID_KEC":"35.78.22","KECAMATAN":"GAYUNGAN","ID_DESA":"35.78.22.1003","DESA":"DUKUH MENANGGAL","LONGITUDE":"112.7274935","LATITUDE":"-7.3453319","STATUS":"BUKA","TANGGAL PE":"Q2 2025","TANGGAL UP":"27/05/2025"}},{"type":"Feature","geometry":{"coordinates":[112.6810547,-7.2859023],"type":"Point"},"properties":{"NAMA":"FAIRWAY NINE MALL","TIPE_1":"HIBURAN DAN KESENIAN","TIPE_2":"PUSAT PERBELANJAAN","TIPE_3":"-","TELEPON":"0878-5116-3000","ALAMAT":"JL. MAYJEND. JONOSEWOJO NO.9, PRADAHKALIKENDAL, KEC. DUKUHPAKIS, SURABAYA, JAWA TIMUR 60226","ID_PROV":"35","PROVINSI":"JAWA TIMUR","ID_KABKOT":"35.78","KABKOT":"KOTA SURABAYA","ID_KEC":"35.78.21","KECAMATAN":"DUKUH PAKIS","ID_DESA":"35.78.21.1004","DESA":"PRADAH KALIKENDAL","LONGITUDE":"112.68105469999999","LATITUDE":"-7.2859023","STATUS":"BUKA","TANGGAL PE":"Q2 2025","TANGGAL UP":"27/05/2025"}},{"type":"Feature","geometry":{"coordinates":[112.7820038,-7.2759917],"type":"Point"},"properties":{"NAMA":"GALAXY MALL 1","TIPE_1":"HIBURAN DAN KESENIAN","TIPE_2":"PUSAT PERBELANJAAN","TIPE_3":"-","TELEPON":"","ALAMAT":"GALAXY MALL, MULYOREJO, KEC. MULYOREJO, SURABAYA, JAWA TIMUR 60115","ID_PROV":"35","PROVINSI":"JAWA TIMUR","ID_KABKOT":"35.78","KABKOT":"KOTA SURABAYA","ID_KEC":"35.78.26","KECAMATAN":"MULYOREJO","ID_DESA":"35.78.26.1001","DESA":"MULYOREJO","LONGITUDE":"112.7820038","LATITUDE":"-7.2759917","STATUS":"BUKA","TANGGAL PE":"Q2 2025","TANGGAL UP":"27/05/2025"}},{"type":"Feature","geometry":{"coordinates":[112.7820621,-7.2741549],"type":"Point"},"properties":{"NAMA":"GALAXY MALL 2","TIPE_1":"HIBURAN DAN KESENIAN","TIPE_2":"PUSAT PERBELANJAAN","TIPE_3":"-","TELEPON":"(031) 5937100","ALAMAT":"MULYOREJO, KEC. MULYOREJO, SURABAYA, JAWA TIMUR 60115","ID_PROV":"35","PROVINSI":"JAWA TIMUR","ID_KABKOT":"35.78","KABKOT":"KOTA SURABAYA","ID_KEC":"35.78.26","KECAMATAN":"MULYOREJO","ID_DESA":"35.78.26.1001","DESA":"MULYOREJO","LONGITUDE":"112.78206209999999","LATITUDE":"-7.2741549","STATUS":"BUKA","TANGGAL PE":"Q2 2025","TANGGAL UP":"27/05/2025"}},{"type":"Feature","geometry":{"coordinates":[112.7806254,-7.2756967],"type":"Point"},"properties":{"NAMA":"GALAXY MALL 3","TIPE_1":"HIBURAN DAN KESENIAN","TIPE_2":"PUSAT PERBELANJAAN","TIPE_3":"-","TELEPON":"(031) 5937100","ALAMAT":"JL. DR. IR. H. SOEKARNO NO.178, MULYOREJO, KEC. MULYOREJO, SURABAYA, JAWA TIMUR 60115","ID_PROV":"35","PROVINSI":"JAWA TIMUR","ID_KABKOT":"35.78","KABKOT":"KOTA SURABAYA","ID_KEC":"35.78.26","KECAMATAN":"MULYOREJO","ID_DESA":"35.78.26.1001","DESA":"MULYOREJO","LONGITUDE":"112.78062539999999","LATITUDE":"-7.275696699999999","STATUS":"BUKA","TANGGAL PE":"Q2 2025","TANGGAL UP":"27/05/2025"}},{"type":"Feature","geometry":{"coordinates":[112.7061565,-7.2917251],"type":"Point"},"properties":{"NAMA":"GOLDEN CITY MALL","TIPE_1":"HIBURAN DAN KESENIAN","TIPE_2":"PUSAT PERBELANJAAN","TIPE_3":"-","TELEPON":"(031) 5653388","ALAMAT":"JL. KH ABDUL WAHAB SIAMIN SURABAYA NO.2-8, DUKUH PAKIS, KEC. DUKUHPAKIS, SURABAYA, JAWA TIMUR 60225","ID_PROV":"35","PROVINSI":"JAWA TIMUR","ID_KABKOT":"35.78","KABKOT":"KOTA SURABAYA","ID_KEC":"35.78.21","KECAMATAN":"DUKUH PAKIS","ID_DESA":"35.78.21.1001","DESA":"DUKUH PAKIS","LONGITUDE":"112.70615649999999","LATITUDE":"-7.2917251","STATUS":"BUKA","TANGGAL PE":"Q2 2025","TANGGAL UP":"27/05/2025"}},{"type":"Feature","geometry":{"coordinates":[112.7499944,-7.2619685],"type":"Point"},"properties":{"NAMA":"GRAND CITY MALL SURABAYA","TIPE_1":"HIBURAN DAN KESENIAN","TIPE_2":"PUSAT PERBELANJAAN","TIPE_3":"-","TELEPON":"(031) 5459000","ALAMAT":"JL. WALIKOTA MUSTAJAB NO.1, KETABANG, KEC. GENTENG, SURABAYA, JAWA TIMUR 60272","ID_PROV":"35","PROVINSI":"JAWA TIMUR","ID_KABKOT":"35.78","KABKOT":"KOTA SURABAYA","ID_KEC":"35.78.07","KECAMATAN":"GENTENG","ID_DESA":"35.78.07.1004","DESA":"KETABANG","LONGITUDE":"112.74999439999999","LATITUDE":"-7.2619685","STATUS":"BUKA","TANGGAL PE":"Q2 2025","TANGGAL UP":"27/05/2025"}},{"type":"Feature","geometry":{"coordinates":[112.7499359,-7.2523439],"type":"Point"},"properties":{"NAMA":"HI - TECH MALL SURABAYA","TIPE_1":"HIBURAN DAN KESENIAN","TIPE_2":"PUSAT PERBELANJAAN","TIPE_3":"-","TELEPON":"","ALAMAT":"JL. KUSUMA BANGSA, TAMBAKSARI, KEC. TAMBAKSARI, SURABAYA, JAWA TIMUR 60136","ID_PROV":"35","PROVINSI":"JAWA TIMUR","ID_KABKOT":"35.78","KABKOT":"KOTA SURABAYA","ID_KEC":"35.78.10","KECAMATAN":"TAMBAKSARI","ID_DESA":"35.78.10.1001","DESA":"TAMBAKSARI","LONGITUDE":"112.7499359","LATITUDE":"-7.2523439","STATUS":"BUKA","TANGGAL PE":"Q2 2025","TANGGAL UP":"27/05/2025"}},{"type":"Feature","geometry":{"coordinates":[112.7800736,-7.2916771],"type":"Point"},"properties":{"NAMA":"ITATS PLAZA","TIPE_1":"HIBURAN DAN KESENIAN","TIPE_2":"PUSAT PERBELANJAAN","TIPE_3":"-","TELEPON":"","ALAMAT":"JL. DR. IR. H. SOEKARNO, KLAMPIS NGASEM, SUKOLILO, SURABAYA, EAST JAVA 60117","ID_PROV":"35","PROVINSI":"JAWA TIMUR","ID_KABKOT":"35.78","KABKOT":"KOTA SURABAYA","ID_KEC":"35.78.09","KECAMATAN":"SUKOLILO","ID_DESA":"35.78.09.1003","DESA":"KLAMPIS NGASEM","LONGITUDE":"112.7800736","LATITUDE":"-7.291677099999999","STATUS":"BUKA","TANGGAL PE":"Q2 2025","TANGGAL UP":"27/05/2025"}},{"type":"Feature","geometry":{"coordinates":[112.7380551,-7.2353408],"type":"Point"},"properties":{"NAMA":"JEMBATAN MERAH PLAZA","TIPE_1":"HIBURAN DAN KESENIAN","TIPE_2":"PUSAT PERBELANJAAN","TIPE_3":"-","TELEPON":"(031) 3556514","ALAMAT":"JL. TAMAN JAYENGRONO NO.2, KREMBANGAN SEL., KEC. KREMBANGAN, SURABAYA, JAWA TIMUR 60175","ID_PROV":"35","PROVINSI":"JAWA TIMUR","ID_KABKOT":"35.78","KABKOT":"KOTA SURABAYA","ID_KEC":"35.78.15","KECAMATAN":"KREMBANGAN","ID_DESA":"35.78.15.1001","DESA":"KREMBANGAN SELATAN","LONGITUDE":"112.7380551","LATITUDE":"-7.235340799999999","STATUS":"BUKA","TANGGAL PE":"Q2 2025","TANGGAL UP":"27/05/2025"}},{"type":"Feature","geometry":{"coordinates":[112.758624,-7.2484459],"type":"Point"},"properties":{"NAMA":"KAZA MALL","TIPE_1":"HIBURAN DAN KESENIAN","TIPE_2":"PUSAT PERBELANJAAN","TIPE_3":"-","TELEPON":"","ALAMAT":"JL. KAPAS KRAMPUNG NO.45, TAMBAKREJO, KEC. SIMOKERTO, SURABAYA, JAWA TIMUR 60142","ID_PROV":"35","PROVINSI":"JAWA TIMUR","ID_KABKOT":"35.78","KABKOT":"KOTA SURABAYA","ID_KEC":"35.78.11","KECAMATAN":"SIMOKERTO","ID_DESA":"35.78.11.1005","DESA":"TAMBAKREJO","LONGITUDE":"112.758624","LATITUDE":"-7.2484459","STATUS":"BUKA","TANGGAL PE":"Q2 2025","TANGGAL UP":"27/05/2025"}},{"type":"Feature","geometry":{"coordinates":[112.70643539999999,-7.2898778],"type":"Point"},"properties":{"NAMA":"LAGOON AVENUE MALL SUNGKONO","TIPE_1":"HIBURAN DAN KESENIAN","TIPE_2":"PUSAT PERBELANJAAN","TIPE_3":"-","TELEPON":"(031) 33300277","ALAMAT":"JL. KH ABDUL WAHAB SIAMIN SURABAYA NO.KAV. 9-10, PUTAT GEDE, DUKUHPAKIS, SURABAYA, EAST JAVA 60225","ID_PROV":"35","PROVINSI":"JAWA TIMUR","ID_KABKOT":"35.78","KABKOT":"KOTA SURABAYA","ID_KEC":"35.78.21","KECAMATAN":"DUKUH PAKIS","ID_DESA":"35.78.21.1001","DESA":"DUKUH PAKIS","LONGITUDE":"112.70643539999999","LATITUDE":"-7.289877799999999","STATUS":"BUKA","TANGGAL PE":"Q2 2025","TANGGAL UP":"27/05/2025"}},{"type":"Feature","geometry":{"coordinates":[112.68117009999999,-7.2856211],"type":"Point"},"properties":{"NAMA":"LENMARC MALL","TIPE_1":"HIBURAN DAN KESENIAN","TIPE_2":"PUSAT PERBELANJAAN","TIPE_3":"-","TELEPON":"(031) 51163000","ALAMAT":"JL. MAYJEND. JONOSEWOJO NO.9, PRADAHKALIKENDAL, KEC. DUKUHPAKIS, SURABAYA, JAWA TIMUR 60226","ID_PROV":"35","PROVINSI":"JAWA TIMUR","ID_KABKOT":"35.78","KABKOT":"KOTA SURABAYA","ID_KEC":"35.78.21","KECAMATAN":"DUKUH PAKIS","ID_DESA":"35.78.21.1004","DESA":"PRADAH KALIKENDAL","LONGITUDE":"112.68117009999999","LATITUDE":"-7.285621099999999","STATUS":"BUKA","TANGGAL PE":"Q2 2025","TANGGAL UP":"27/05/2025"}},{"type":"Feature","geometry":{"coordinates":[112.7456709,-7.2893139],"type":"Point"},"properties":{"NAMA":"MARVELL CITY MALL","TIPE_1":"HIBURAN DAN KESENIAN","TIPE_2":"PUSAT PERBELANJAAN","TIPE_3":"-","TELEPON":"(031) 99440515","ALAMAT":"JL. NGAGEL NO.123, NGAGEL, KEC. WONOKROMO, SURABAYA, JAWA TIMUR 60246","ID_PROV":"35","PROVINSI":"JAWA TIMUR","ID_KABKOT":"35.78","KABKOT":"KOTA SURABAYA","ID_KEC":"35.78.04","KECAMATAN":"WONOKROMO","ID_DESA":"35.78.04.1003","DESA":"NGAGEL","LONGITUDE":"112.7456709","LATITUDE":"-7.2893139","STATUS":"BUKA","TANGGAL PE":"Q2 2025","TANGGAL UP":"27/05/2025"}},{"type":"Feature","geometry":{"coordinates":[112.80543019999999,-7.2743701],"type":"Point"},"properties":{"NAMA":"PAKUWON CITY MALL","TIPE_1":"HIBURAN DAN KESENIAN","TIPE_2":"PUSAT PERBELANJAAN","TIPE_3":"-","TELEPON":"0813-3398-8927","ALAMAT":"JL. KEJAWAN PUTIH TAMBAK II NO.40, KEJAWAAN PUTIH TAMBA, KEC. MULYOREJO, SURABAYA, JAWA TIMUR 60112","ID_PROV":"35","PROVINSI":"JAWA TIMUR","ID_KABKOT":"35.78","KABKOT":"KOTA SURABAYA","ID_KEC":"35.78.26","KECAMATAN":"MULYOREJO","ID_DESA":"35.78.26.1003","DESA":"KEJAWAN PUTIH TAMBAK","LONGITUDE":"112.80543019999999","LATITUDE":"-7.2743701","STATUS":"BUKA","TANGGAL PE":"Q2 2025","TANGGAL UP":"27/05/2025"}},{"type":"Feature","geometry":{"coordinates":[112.8061882,-7.2768784],"type":"Point"},"properties":{"NAMA":"PAKUWON CITY MALL","TIPE_1":"HIBURAN DAN KESENIAN","TIPE_2":"PUSAT PERBELANJAAN","TIPE_3":"-","TELEPON":"(031) 58208800","ALAMAT":"JL. RAYA LAGUNA KJW PUTIH TAMBAK NO.2, KEJAWAAN PUTIH TAMBA, KEC. MULYOREJO, SURABAYA, JAWA TIMUR 60112","ID_PROV":"35","PROVINSI":"JAWA TIMUR","ID_KABKOT":"35.78","KABKOT":"KOTA SURABAYA","ID_KEC":"35.78.26","KECAMATAN":"MULYOREJO","ID_DESA":"35.78.26.1003","DESA":"KEJAWAN PUTIH TAMBAK","LONGITUDE":"112.8061882","LATITUDE":"-7.276878399999999","STATUS":"BUKA","TANGGAL PE":"Q2 2025","TANGGAL UP":"27/05/2025"}},{"type":"Feature","geometry":{"coordinates":[112.8056191,-7.2754742],"type":"Point"},"properties":{"NAMA":"PAKUWON CITY MALL","TIPE_1":"HIBURAN DAN KESENIAN","TIPE_2":"PUSAT PERBELANJAAN","TIPE_3":"-","TELEPON":"0813-3398-8927","ALAMAT":"JL. KEJAWAN PUTIH TAMBAK II NO.40, KEJAWAAN PUTIH TAMBA, KEC. MULYOREJO, SURABAYA, JAWA TIMUR 60112","ID_PROV":"35","PROVINSI":"JAWA TIMUR","ID_KABKOT":"35.78","KABKOT":"KOTA SURABAYA","ID_KEC":"35.78.26","KECAMATAN":"MULYOREJO","ID_DESA":"35.78.26.1003","DESA":"KEJAWAN PUTIH TAMBAK","LONGITUDE":"112.8056191","LATITUDE":"-7.2754742","STATUS":"BUKA","TANGGAL PE":"Q2 2025","TANGGAL UP":"27/05/2025"}},{"type":"Feature","geometry":{"coordinates":[112.804544,-7.2754274],"type":"Point"},"properties":{"NAMA":"PAKUWON CITY MALL 3 AND BELLA APARTMENT","TIPE_1":"HIBURAN DAN KESENIAN","TIPE_2":"PUSAT PERBELANJAAN","TIPE_3":"-","TELEPON":"","ALAMAT":"JL. MUTIARA I NO NO.C/3-40, RT.000/RW.00, KEJAWAAN PUTIH TAMBA, MULYOREJO, SURABAYA, EAST JAVA 60112","ID_PROV":"35","PROVINSI":"JAWA TIMUR","ID_KABKOT":"35.78","KABKOT":"KOTA SURABAYA","ID_KEC":"35.78.26","KECAMATAN":"MULYOREJO","ID_DESA":"35.78.26.1003","DESA":"KEJAWAN PUTIH TAMBAK","LONGITUDE":"112.80454399999999","LATITUDE":"-7.2754274","STATUS":"BUKA","TANGGAL PE":"Q2 2025","TANGGAL UP":"27/05/2025"}},{"type":"Feature","geometry":{"coordinates":[112.673717,-7.2888786],"type":"Point"},"properties":{"NAMA":"PAKUWON MALL 3 MANSION","TIPE_1":"HIBURAN DAN KESENIAN","TIPE_2":"PUSAT PERBELANJAAN","TIPE_3":"-","TELEPON":"","ALAMAT":"JL. PAKUWON INDAH NO.2, BABATAN, KEC. WIYUNG, SURABAYA, JAWA TIMUR 60227","ID_PROV":"35","PROVINSI":"JAWA TIMUR","ID_KABKOT":"35.78","KABKOT":"KOTA SURABAYA","ID_KEC":"35.78.31","KECAMATAN":"SAMBIKEREP","ID_DESA":"35.78.31.1004","DESA":"LONTAR","LONGITUDE":"112.673717","LATITUDE":"-7.288878599999999","STATUS":"BUKA","TANGGAL PE":"Q2 2025","TANGGAL UP":"27/05/2025"}},{"type":"Feature","geometry":{"coordinates":[112.6757233,-7.2891414],"type":"Point"},"properties":{"NAMA":"PAKUWON MALL SURABAYA","TIPE_1":"HIBURAN DAN KESENIAN","TIPE_2":"PUSAT PERBELANJAAN","TIPE_3":"-","TELEPON":"(031) 7393888","ALAMAT":"JL. MAYJEND. JONOSEWOJO NO.2, BABATAN, KEC. WIYUNG, SURABAYA, JAWA TIMUR 60227","ID_PROV":"35","PROVINSI":"JAWA TIMUR","ID_KABKOT":"35.78","KABKOT":"KOTA SURABAYA","ID_KEC":"35.78.31","KECAMATAN":"SAMBIKEREP","ID_DESA":"35.78.31.1004","DESA":"LONTAR","LONGITUDE":"112.6757233","LATITUDE":"-7.2891414","STATUS":"BUKA","TANGGAL PE":"Q2 2025","TANGGAL UP":"27/05/2025"}},{"type":"Feature","geometry":{"coordinates":[112.7438892,-7.2424299],"type":"Point"},"properties":{"NAMA":"PASAR ATOM MALL","TIPE_1":"HIBURAN DAN KESENIAN","TIPE_2":"PUSAT PERBELANJAAN","TIPE_3":"-","TELEPON":"","ALAMAT":"BLOK CC NO.26 LANTAI 4, BONGKARAN, PABEAN CANTIKAN, SURABAYA, EAST JAVA 60161","ID_PROV":"35","PROVINSI":"JAWA TIMUR","ID_KABKOT":"35.78","KABKOT":"KOTA SURABAYA","ID_KEC":"35.78.12","KECAMATAN":"PABEAN CANTIAN","ID_DESA":"35.78.12.1001","DESA":"BONGKARAN","LONGITUDE":"112.7438892","LATITUDE":"-7.242429899999999","STATUS":"BUKA","TANGGAL PE":"Q2 2025","TANGGAL UP":"27/05/2025"}},{"type":"Feature","geometry":{"coordinates":[112.7684657,-7.2325592],"type":"Point"},"properties":{"NAMA":"PLAZA PKL POGOT","TIPE_1":"HIBURAN DAN KESENIAN","TIPE_2":"PUSAT PERBELANJAAN","TIPE_3":"-","TELEPON":"(031) 3727841","ALAMAT":"JL. POGOT NO.66-69, TANAH KALI KEDINDING, KEC. KENJERAN, SURABAYA, JAWA TIMUR 60129","ID_PROV":"35","PROVINSI":"JAWA TIMUR","ID_KABKOT":"35.78","KABKOT":"KOTA SURABAYA","ID_KEC":"35.78.17","KECAMATAN":"KENJERAN","ID_DESA":"35.78.17.1001","DESA":"TANAH KALI KEDINDING","LONGITUDE":"112.7684657","LATITUDE":"-7.2325592","STATUS":"BUKA","TANGGAL PE":"Q2 2025","TANGGAL UP":"27/05/2025"}},{"type":"Feature","geometry":{"coordinates":[112.7489321,-7.2653355],"type":"Point"},"properties":{"NAMA":"PLAZA SURABAYA","TIPE_1":"HIBURAN DAN KESENIAN","TIPE_2":"PUSAT PERBELANJAAN","TIPE_3":"-","TELEPON":"(031) 5315088","ALAMAT":"JI. PEMUDA NO.33-37, EMBONG KALIASIN, KEC. GENTENG, SURABAYA, JAWA TIMUR 60271","ID_PROV":"35","PROVINSI":"JAWA TIMUR","ID_KABKOT":"35.78","KABKOT":"KOTA SURABAYA","ID_KEC":"35.78.07","KECAMATAN":"GENTENG","ID_DESA":"35.78.07.1001","DESA":"EMBONG KALIASIN","LONGITUDE":"112.74893209999999","LATITUDE":"-7.2653355","STATUS":"BUKA","TANGGAL PE":"Q2 2025","TANGGAL UP":"27/05/2025"}},{"type":"Feature","geometry":{"coordinates":[112.7348904,-7.3089332],"type":"Point"},"properties":{"NAMA":"ROYAL PLAZA","TIPE_1":"HIBURAN DAN KESENIAN","TIPE_2":"PUSAT PERBELANJAAN","TIPE_3":"-","TELEPON":"(031) 8270866","ALAMAT":"JL. A YANI FRONTAGE BARAT NO.16-18, WONOKROMO, KEC. WONOKROMO, SURABAYA, JAWA TIMUR 60243","ID_PROV":"35","PROVINSI":"JAWA TIMUR","ID_KABKOT":"35.78","KABKOT":"KOTA SURABAYA","ID_KEC":"35.78.04","KECAMATAN":"WONOKROMO","ID_DESA":"35.78.04.1001","DESA":"WONOKROMO","LONGITUDE":"112.7348904","LATITUDE":"-7.308933199999999","STATUS":"BUKA","TANGGAL PE":"Q2 2025","TANGGAL UP":"27/05/2025"}},{"type":"Feature","geometry":{"coordinates":[112.743902,-7.242092],"type":"Point"},"properties":{"NAMA":"SEMUT MEGAH PLAZA","TIPE_1":"HIBURAN DAN KESENIAN","TIPE_2":"PUSAT PERBELANJAAN","TIPE_3":"-","TELEPON":"","ALAMAT":"JL. BUNGURAN NO.45, BONGKARAN, PABEAN CANTIKAN, SURABAYA, EAST JAVA 60161","ID_PROV":"35","PROVINSI":"JAWA TIMUR","ID_KABKOT":"35.78","KABKOT":"KOTA SURABAYA","ID_KEC":"35.78.12","KECAMATAN":"PABEAN CANTIAN","ID_DESA":"35.78.12.1001","DESA":"BONGKARAN","LONGITUDE":"112.74390199999999","LATITUDE":"-7.242092","STATUS":"BUKA","TANGGAL PE":"Q2 2025","TANGGAL UP":"27/05/2025"}},{"type":"Feature","geometry":{"coordinates":[112.7158916,-7.254909],"type":"Point"},"properties":{"NAMA":"THE CENTRAL MALL - GUNAWANGSA TIDAR","TIPE_1":"HIBURAN DAN KESENIAN","TIPE_2":"PUSAT PERBELANJAAN","TIPE_3":"-","TELEPON":"(031) 99250808","ALAMAT":"JL. TIDAR NO.350, TEMBOK DUKUH, KEC. BUBUTAN, SURABAYA, JAWA TIMUR 60173","ID_PROV":"35","PROVINSI":"JAWA TIMUR","ID_KABKOT":"35.78","KABKOT":"KOTA SURABAYA","ID_KEC":"35.78.13","KECAMATAN":"BUBUTAN","ID_DESA":"35.78.13.1005","DESA":"TEMBOK DUKUH","LONGITUDE":"112.71589159999999","LATITUDE":"-7.254909","STATUS":"BUKA","TANGGAL PE":"Q2 2025","TANGGAL UP":"27/05/2025"}},{"type":"Feature","geometry":{"coordinates":[112.7287286,-7.3386863],"type":"Point"},"properties":{"NAMA":"TRANS ICON MALL SURABAYA","TIPE_1":"HIBURAN DAN KESENIAN","TIPE_2":"PUSAT PERBELANJAAN","TIPE_3":"-","TELEPON":"","ALAMAT":"MENANGGAL, KEC. GAYUNGAN, SURABAYA, JAWA TIMUR","ID_PROV":"35","PROVINSI":"JAWA TIMUR","ID_KABKOT":"35.78","KABKOT":"KOTA SURABAYA","ID_KEC":"35.78.22","KECAMATAN":"GAYUNGAN","ID_DESA":"35.78.22.1002","DESA":"MENANGGAL","LONGITUDE":"112.7287286","LATITUDE":"-7.3386863","STATUS":"BUKA","TANGGAL PE":"Q2 2025","TANGGAL UP":"27/05/2025"}},{"type":"Feature","geometry":{"coordinates":[112.7378177,-7.2569537],"type":"Point"},"properties":{"NAMA":"TUNJUNGAN ELECTRONIC CENTER","TIPE_1":"HIBURAN DAN KESENIAN","TIPE_2":"PUSAT PERBELANJAAN","TIPE_3":"-","TELEPON":"","ALAMAT":"JL. TUNJUNGAN NO.5, GENTENG, SURABAYA, EAST JAVA 60275","ID_PROV":"35","PROVINSI":"JAWA TIMUR","ID_KABKOT":"35.78","KABKOT":"KOTA SURABAYA","ID_KEC":"35.78.07","KECAMATAN":"GENTENG","ID_DESA":"35.78.07.1002","DESA":"GENTENG","LONGITUDE":"112.7378177","LATITUDE":"-7.2569537","STATUS":"BUKA","TANGGAL PE":"Q2 2025","TANGGAL UP":"27/05/2025"}},{"type":"Feature","geometry":{"coordinates":[112.7399501,-7.2632769],"type":"Point"},"properties":{"NAMA":"TUNJUNGAN PLAZA","TIPE_1":"HIBURAN DAN KESENIAN","TIPE_2":"PUSAT PERBELANJAAN","TIPE_3":"-","TELEPON":"(031) 5311088","ALAMAT":"JL. JENDERAL BASUKI RACHMAT NO.8-12 2 LANTAI 5, KEDUNGDORO, KEC. TEGALSARI, SURABAYA, JAWA TIMUR 60261","ID_PROV":"35","PROVINSI":"JAWA TIMUR","ID_KABKOT":"35.78","KABKOT":"KOTA SURABAYA","ID_KEC":"35.78.05","KECAMATAN":"TEGALSARI","ID_DESA":"35.78.05.1003","DESA":"KEDUNGDORO","LONGITUDE":"112.7399501","LATITUDE":"-7.263276899999999","STATUS":"BUKA","TANGGAL PE":"Q2 2025","TANGGAL UP":"27/05/2025"}},{"type":"Feature","geometry":{"coordinates":[112.7296562,-7.2596122],"type":"Point"},"properties":{"NAMA":"TUNJUNGAN PLAZA","TIPE_1":"HIBURAN DAN KESENIAN","TIPE_2":"PUSAT PERBELANJAAN","TIPE_3":"-","TELEPON":"","ALAMAT":"JL. ARGOPURO NO.1-41, SAWAHAN, KEC. SAWAHAN, SURABAYA, JAWA TIMUR 60251","ID_PROV":"35","PROVINSI":"JAWA TIMUR","ID_KABKOT":"35.78","KABKOT":"KOTA SURABAYA","ID_KEC":"35.78.06","KECAMATAN":"SAWAHAN","ID_DESA":"35.78.06.1002","DESA":"SAWAHAN","LONGITUDE":"112.7296562","LATITUDE":"-7.259612199999999","STATUS":"BUKA","TANGGAL PE":"Q2 2025","TANGGAL UP":"27/05/2025"}},{"type":"Feature","geometry":{"coordinates":[112.7391694,-7.2635128],"type":"Point"},"properties":{"NAMA":"TUNJUNGAN PLAZA 3","TIPE_1":"HIBURAN DAN KESENIAN","TIPE_2":"PUSAT PERBELANJAAN","TIPE_3":"-","TELEPON":"","ALAMAT":"JL. BASUKI RAHMAT 60261 NO.8-12, KEDUNGDORO, KEC. TEGALSARI, SURABAYA, JAWA TIMUR 60261","ID_PROV":"35","PROVINSI":"JAWA TIMUR","ID_KABKOT":"35.78","KABKOT":"KOTA SURABAYA","ID_KEC":"35.78.05","KECAMATAN":"TEGALSARI","ID_DESA":"35.78.05.1003","DESA":"KEDUNGDORO","LONGITUDE":"112.7391694","LATITUDE":"-7.2635128","STATUS":"BUKA","TANGGAL PE":"Q2 2025","TANGGAL UP":"27/05/2025"}},{"type":"Feature","geometry":{"coordinates":[112.73910749999999,-7.2617114],"type":"Point"},"properties":{"NAMA":"TUNJUNGAN PLAZA 4","TIPE_1":"HIBURAN DAN KESENIAN","TIPE_2":"PUSAT PERBELANJAAN","TIPE_3":"-","TELEPON":"","ALAMAT":"JL. BASUKI RAHMAT NO.8012, KEDUNGDORO, TEGALSARI, SURABAYA, EAST JAVA 60261","ID_PROV":"35","PROVINSI":"JAWA TIMUR","ID_KABKOT":"35.78","KABKOT":"KOTA SURABAYA","ID_KEC":"35.78.05","KECAMATAN":"TEGALSARI","ID_DESA":"35.78.05.1003","DESA":"KEDUNGDORO","LONGITUDE":"112.73910749999999","LATITUDE":"-7.261711399999999","STATUS":"BUKA","TANGGAL PE":"Q2 2025","TANGGAL UP":"27/05/2025"}},{"type":"Feature","geometry":{"coordinates":[112.7407008,-7.2634614],"type":"Point"},"properties":{"NAMA":"TUNJUNGAN PLAZA 5","TIPE_1":"HIBURAN DAN KESENIAN","TIPE_2":"PUSAT PERBELANJAAN","TIPE_3":"-","TELEPON":"(031) 5311088","ALAMAT":"JL. BASUKI RAHMAT NO.8-12, KEDUNGDORO, KEC. TEGALSARI, SURABAYA, JAWA TIMUR 60261","ID_PROV":"35","PROVINSI":"JAWA TIMUR","ID_KABKOT":"35.78","KABKOT":"KOTA SURABAYA","ID_KEC":"35.78.05","KECAMATAN":"TEGALSARI","ID_DESA":"35.78.05.1003","DESA":"KEDUNGDORO","LONGITUDE":"112.7407008","LATITUDE":"-7.2634614","STATUS":"BUKA","TANGGAL PE":"Q2 2025","TANGGAL UP":"27/05/2025"}},{"type":"Feature","geometry":{"coordinates":[112.7384407,-7.2623705],"type":"Point"},"properties":{"NAMA":"TUNJUNGAN PLAZA 6","TIPE_1":"HIBURAN DAN KESENIAN","TIPE_2":"PUSAT PERBELANJAAN","TIPE_3":"-","TELEPON":"(031) 5311088","ALAMAT":"JL. EMBONG MALANG NO.32-36, KEDUNGDORO, KEC. TEGALSARI, SURABAYA, JAWA TIMUR 60261","ID_PROV":"35","PROVINSI":"JAWA TIMUR","ID_KABKOT":"35.78","KABKOT":"KOTA SURABAYA","ID_KEC":"35.78.05","KECAMATAN":"TEGALSARI","ID_DESA":"35.78.05.1003","DESA":"KEDUNGDORO","LONGITUDE":"112.7384407","LATITUDE":"-7.262370499999999","STATUS":"BUKA","TANGGAL PE":"Q2 2025","TANGGAL UP":"27/05/2025"}}]}