{"type":"FeatureCollection","features":[{"type":"Feature","geometry":{"coordinates":[112.6152,-7.23407],"type":"Point"},"properties":{"NAMA":"STASIUN BENOWO","TIPE_1":"TRANSPORTASI","TIPE_2":"STASIUN","TIPE_3":"KERETA API","TELEPON":"","ALAMAT":"BENOWO, KEC. PAKAL, SURABAYA, JAWA TIMUR 60195","ID_PROV":"35","PROVINSI":"JAWA TIMUR","ID_KABKOT":"35.78","KABKOT":"KOTA SURABAYA","ID_KEC":"35.78.30","KECAMATAN":"PAKAL","ID_DESA":"35.78.30.1005","DESA":"BENOWO","LONGITUDE":112.6152,"LATITUDE":-7.23407,"STATUS":"BUKA","TANGGAL PENGUMPULAN":"Q2 2024","TANGGAL UPDATE":"27/07/2025"}},{"type":"Feature","geometry":{"coordinates":[112.7294,-7.34058],"type":"Point"},"properties":{"NAMA":"STASIUN KERTOMENANGGAL","TIPE_1":"TRANSPORTASI","TIPE_2":"STASIUN","TIPE_3":"KERETA API","TELEPON":"","ALAMAT":"DUKUH MENANGGAL, KEC. GAYUNGAN, SURABAYA, JAWA TIMUR 60234","ID_PROV":"35","PROVINSI":"JAWA TIMUR","ID_KABKOT":"35.78","KABKOT":"KOTA SURABAYA","ID_KEC":"35.78.22","KECAMATAN":"GAYUNGAN","ID_DESA":"35.78.22.1003","DESA":"DUKUH MENANGGAL","LONGITUDE":112.7294,"LATITUDE":-7.34058,"STATUS":"BUKA","TANGGAL PENGUMPULAN":"Q2 2024","TANGGAL UPDATE":"27/07/2025"}},{"type":"Feature","geometry":{"coordinates":[112.7314,-7.32928],"type":"Point"},"properties":{"NAMA":"STASIUN JEMURSARI","TIPE_1":"TRANSPORTASI","TIPE_2":"STASIUN","TIPE_3":"KERETA API","TELEPON":"","ALAMAT":"JEMURSARI, JEMUR WONOSARI, KEC. WONOCOLO, SURABAYA, JAWA TIMUR 60235","ID_PROV":"35","PROVINSI":"JAWA TIMUR","ID_KABKOT":"35.78","KABKOT":"KOTA SURABAYA","ID_KEC":"35.78.02","KECAMATAN":"WONOCOLO","ID_DESA":"35.78.02.1004","DESA":"JEMUR WONOSARI","LONGITUDE":112.7314,"LATITUDE":-7.32928,"STATUS":"BUKA","TANGGAL PENGUMPULAN":"Q2 2024","TANGGAL UPDATE":"27/07/2025"}},{"type":"Feature","geometry":{"coordinates":[112.7312,-7.24817],"type":"Point"},"properties":{"NAMA":"STASIUN SURABAYA PASAR TURI","TIPE_1":"TRANSPORTASI","TIPE_2":"STASIUN","TIPE_3":"KERETA API","TELEPON":"","ALAMAT":"JL. SEMARANG NO.103, GUNDIH, KEC. BUBUTAN, SURABAYA, JAWA TIMUR 60172","ID_PROV":"35","PROVINSI":"JAWA TIMUR","ID_KABKOT":"35.78","KABKOT":"KOTA SURABAYA","ID_KEC":"35.78.13","KECAMATAN":"BUBUTAN","ID_DESA":"35.78.13.1003","DESA":"GUNDIH","LONGITUDE":112.7312,"LATITUDE":-7.24817,"STATUS":"BUKA","TANGGAL PENGUMPULAN":"Q2 2024","TANGGAL UPDATE":"27/07/2025"}},{"type":"Feature","geometry":{"coordinates":[112.7522,-7.2652],"type":"Point"},"properties":{"NAMA":"STASIUN SURABAYA GUBENGX","TIPE_1":"TRANSPORTASI","TIPE_2":"STASIUN","TIPE_3":"KERETA API","TELEPON":"","ALAMAT":"JL. STASIUN GUBENG, PACAR KELING, KEC. TAMBAKSARI, SURABAYA, JAWA TIMUR 60272","ID_PROV":"35","PROVINSI":"JAWA TIMUR","ID_KABKOT":"35.78","KABKOT":"KOTA SURABAYA","ID_KEC":"35.78.10","KECAMATAN":"TAMBAKSARI","ID_DESA":"35.78.10.1006","DESA":"PACARKELING","LONGITUDE":112.7522,"LATITUDE":-7.2652,"STATUS":"BUKA","TANGGAL PENGUMPULAN":"Q2 2024","TANGGAL UPDATE":"27/07/2025"}},{"type":"Feature","geometry":{"coordinates":[112.735,-7.21991],"type":"Point"},"properties":{"NAMA":"STASIUN KALIMAS","TIPE_1":"TRANSPORTASI","TIPE_2":"STASIUN","TIPE_3":"KERETA API","TELEPON":"","ALAMAT":"KALIMAS, JL. JAKARTA BARAT SURABAYA, PERAK UTARA, KEC. PABEAN CANTIKAN, SURABAYA, JAWA TIMUR 60165","ID_PROV":"35","PROVINSI":"JAWA TIMUR","ID_KABKOT":"35.78","KABKOT":"KOTA SURABAYA","ID_KEC":"35.78.12","KECAMATAN":"PABEAN CANTIAN","ID_DESA":"35.78.12.1005","DESA":"PERAK UTARA","LONGITUDE":112.735,"LATITUDE":-7.21991,"STATUS":"BUKA","TANGGAL PENGUMPULAN":"Q2 2024","TANGGAL UPDATE":"27/07/2025"}},{"type":"Feature","geometry":{"coordinates":[112.7344,-7.3147],"type":"Point"},"properties":{"NAMA":"STASIUN MARGOREJO","TIPE_1":"TRANSPORTASI","TIPE_2":"STASIUN","TIPE_3":"KERETA API","TELEPON":"","ALAMAT":"MARGOREJO, KEC. WONOCOLO, SURABAYA, JAWA TIMUR 60231","ID_PROV":"35","PROVINSI":"JAWA TIMUR","ID_KABKOT":"35.78","KABKOT":"KOTA SURABAYA","ID_KEC":"35.78.02","KECAMATAN":"WONOCOLO","ID_DESA":"35.78.02.1003","DESA":"MARGOREJO","LONGITUDE":112.7344,"LATITUDE":-7.3147,"STATUS":"BUKA","TANGGAL PENGUMPULAN":"Q2 2024","TANGGAL UPDATE":"27/07/2025"}},{"type":"Feature","geometry":{"coordinates":[112.7482,-7.28778],"type":"Point"},"properties":{"NAMA":"STASIUN NGAGEL","TIPE_1":"TRANSPORTASI","TIPE_2":"STASIUN","TIPE_3":"KERETA API","TELEPON":"","ALAMAT":"NGAGEL, WONOKROMO, SURABAYA, JAWA TIMUR 60246","ID_PROV":"35","PROVINSI":"JAWA TIMUR","ID_KABKOT":"35.78","KABKOT":"KOTA SURABAYA","ID_KEC":"35.78.08","KECAMATAN":"GUBENG","ID_DESA":"35.78.08.1006","DESA":"PUCANG SEWU","LONGITUDE":112.7482,"LATITUDE":-7.28778,"STATUS":"BUKA","TANGGAL PENGUMPULAN":"Q2 2024","TANGGAL UPDATE":"27/07/2025"}},{"type":"Feature","geometry":{"coordinates":[112.7522,-7.2652],"type":"Point"},"properties":{"NAMA":"STASIUN SURABAYA GUBENGX","TIPE_1":"TRANSPORTASI","TIPE_2":"STASIUN","TIPE_3":"COMMUTER","TELEPON":"","ALAMAT":"PACAR KELING, KEC. TAMBAKSARI, SURABAYA, JAWA TIMUR 60131","ID_PROV":"35","PROVINSI":"JAWA TIMUR","ID_KABKOT":"35.78","KABKOT":"KOTA SURABAYA","ID_KEC":"35.78.10","KECAMATAN":"TAMBAKSARI","ID_DESA":"35.78.10.1006","DESA":"PACARKELING","LONGITUDE":112.7522,"LATITUDE":-7.2652,"STATUS":"BUKA","TANGGAL PENGUMPULAN":"Q2 2024","TANGGAL UPDATE":"27/07/2025"}},{"type":"Feature","geometry":{"coordinates":[112.7522,-7.2652],"type":"Point"},"properties":{"NAMA":"STASIUN SURABAYA GUBENG","TIPE_1":"TRANSPORTASI","TIPE_2":"STASIUN","TIPE_3":"COMMUTER","TELEPON":"","ALAMAT":"PACAR KELING, KEC. TAMBAKSARI, SURABAYA, JAWA TIMUR 60131","ID_PROV":"35","PROVINSI":"JAWA TIMUR","ID_KABKOT":"35.78","KABKOT":"KOTA SURABAYA","ID_KEC":"35.78.10","KECAMATAN":"TAMBAKSARI","ID_DESA":"35.78.10.1006","DESA":"PACARKELING","LONGITUDE":112.7522,"LATITUDE":-7.2652,"STATUS":"BUKA","TANGGAL PENGUMPULAN":"Q2 2024","TANGGAL UPDATE":"27/07/2025"}},{"type":"Feature","geometry":{"coordinates":[112.744,-7.22119],"type":"Point"},"properties":{"NAMA":"STASIUN BENTENG","TIPE_1":"TRANSPORTASI","TIPE_2":"STASIUN","TIPE_3":"KERETA API","TELEPON":"","ALAMAT":"UJUNG, KEC. SEMAMPIR, SURABAYA, JAWA TIMUR 60155","ID_PROV":"35","PROVINSI":"JAWA TIMUR","ID_KABKOT":"35.78","KABKOT":"KOTA SURABAYA","ID_KEC":"35.78.16","KECAMATAN":"SEMAMPIR","ID_DESA":"35.78.16.1004","DESA":"UJUNG","LONGITUDE":112.744,"LATITUDE":-7.22119,"STATUS":"BUKA","TANGGAL PENGUMPULAN":"Q2 2024","TANGGAL UPDATE":"27/07/2025"}},{"type":"Feature","geometry":{"coordinates":[112.7574,-7.23529],"type":"Point"},"properties":{"NAMA":"STASIUN SIDOTOPO","TIPE_1":"TRANSPORTASI","TIPE_2":"STASIUN","TIPE_3":"KERETA API","TELEPON":"","ALAMAT":"SIDOTOPO, SURABAYA, KOTA SURABAYA, JAWA TIMUR, INDONESIA, JAWA TIMUR","ID_PROV":"35","PROVINSI":"JAWA TIMUR","ID_KABKOT":"35.78","KABKOT":"KOTA SURABAYA","ID_KEC":"35.78.11","KECAMATAN":"SIMOKERTO","ID_DESA":"35.78.11.1001","DESA":"SIMOKERTO","LONGITUDE":112.7574,"LATITUDE":-7.23529,"STATUS":"BUKA","TANGGAL PENGUMPULAN":"Q2 2024","TANGGAL UPDATE":"27/07/2025"}},{"type":"Feature","geometry":{"coordinates":[112.6572,-7.25079],"type":"Point"},"properties":{"NAMA":"STASIUN KANDANGAN","TIPE_1":"TRANSPORTASI","TIPE_2":"STASIUN","TIPE_3":"KERETA API","TELEPON":"","ALAMAT":"BANJAR SUGIHAN, KEC. TANDES, SURABAYA, JAWA TIMUR 60185","ID_PROV":"35","PROVINSI":"JAWA TIMUR","ID_KABKOT":"35.78","KABKOT":"KOTA SURABAYA","ID_KEC":"35.78.14","KECAMATAN":"TANDES","ID_DESA":"35.78.14.1012","DESA":"BANJAR SUGIHAN","LONGITUDE":112.6572,"LATITUDE":-7.25079,"STATUS":"BUKA","TANGGAL PENGUMPULAN":"Q2 2024","TANGGAL UPDATE":"27/07/2025"}},{"type":"Feature","geometry":{"coordinates":[112.7522,-7.2652],"type":"Point"},"properties":{"NAMA":"STASIUN SURABAYA GUBENG","TIPE_1":"TRANSPORTASI","TIPE_2":"STASIUN","TIPE_3":"KERETA API","TELEPON":"","ALAMAT":"PACAR KELING, KEC. TAMBAKSARI, SURABAYA, JAWA TIMUR 60131","ID_PROV":"35","PROVINSI":"JAWA TIMUR","ID_KABKOT":"35.78","KABKOT":"KOTA SURABAYA","ID_KEC":"35.78.10","KECAMATAN":"TAMBAKSARI","ID_DESA":"35.78.10.1006","DESA":"PACARKELING","LONGITUDE":112.7522,"LATITUDE":-7.2652,"STATUS":"BUKA","TANGGAL PENGUMPULAN":"Q2 2024","TANGGAL UPDATE":"27/07/2025"}},{"type":"Feature","geometry":{"coordinates":[112.742,-7.24298],"type":"Point"},"properties":{"NAMA":"STASIUN SURABAYA KOTA","TIPE_1":"TRANSPORTASI","TIPE_2":"STASIUN","TIPE_3":"KERETA API","TELEPON":"","ALAMAT":"JL. STASIUN 9, SURABAYA, JAWA TIMUR 60161","ID_PROV":"35","PROVINSI":"JAWA TIMUR","ID_KABKOT":"35.78","KABKOT":"KOTA SURABAYA","ID_KEC":"35.78.12","KECAMATAN":"PABEAN CANTIAN","ID_DESA":"35.78.12.1001","DESA":"BONGKARAN","LONGITUDE":112.742,"LATITUDE":-7.24298,"STATUS":"BUKA","TANGGAL PENGUMPULAN":"Q2 2024","TANGGAL UPDATE":"27/07/2025"}},{"type":"Feature","geometry":{"coordinates":[112.687,-7.25897],"type":"Point"},"properties":{"NAMA":"STASIUN TANDES","TIPE_1":"TRANSPORTASI","TIPE_2":"STASIUN","TIPE_3":"KERETA API","TELEPON":"","ALAMAT":"TANDES, JL. RAYA TANDES LOR, TANDES KIDUL, KEC. TANDES, SURABAYA, JAWA TIMUR 60186","ID_PROV":"35","PROVINSI":"JAWA TIMUR","ID_KABKOT":"35.78","KABKOT":"KOTA SURABAYA","ID_KEC":"35.78.14","KECAMATAN":"TANDES","ID_DESA":"35.78.14.1002","DESA":"TANDES","LONGITUDE":112.687,"LATITUDE":-7.25897,"STATUS":"BUKA","TANGGAL PENGUMPULAN":"Q2 2024","TANGGAL UPDATE":"27/07/2025"}},{"type":"Feature","geometry":{"coordinates":[112.7394,-7.30206],"type":"Point"},"properties":{"NAMA":"STASIUN WONOKROMO","TIPE_1":"TRANSPORTASI","TIPE_2":"STASIUN","TIPE_3":"KERETA API","TELEPON":"","ALAMAT":"WONOKROMO, JAGIR, KEC. WONOKROMO, SURABAYA, JAWA TIMUR 60244","ID_PROV":"35","PROVINSI":"JAWA TIMUR","ID_KABKOT":"35.78","KABKOT":"KOTA SURABAYA","ID_KEC":"35.78.04","KECAMATAN":"WONOKROMO","ID_DESA":"35.78.04.1002","DESA":"JAGIR","LONGITUDE":112.7394,"LATITUDE":-7.30206,"STATUS":"BUKA","TANGGAL PENGUMPULAN":"Q2 2024","TANGGAL UPDATE":"27/07/2025"}}]}